[{"OBJECT_NAME":"STARLINK-32757","OBJECT_ID":"2025-003F","EPOCH":"2026-03-09T14:06:20.201184","MEAN_MOTION":15.27601008,"ECCENTRICITY":0.00013,"INCLINATION":42.9926,"RA_OF_ASC_NODE":289.7462,"ARG_OF_PERICENTER":75.9369,"MEAN_ANOMALY":284.1627,"EPHEMERIS_TYPE":0,"CLASSIFICATION_TYPE":"U","NORAD_CAT_ID":62492,"ELEMENT_SET_NO":999,"REV_AT_EPOCH":6653,"BSTAR":0.00081611,"MEAN_MOTION_DOT":0.00022278,"MEAN_MOTION_DDOT":0},{"OBJECT_NAME":"OBJECT G","OBJECT_ID":"2025-155G","EPOCH":"2026-03-09T22:09:56.639808","MEAN_MOTION":15.27590702,"ECCENTRICITY":0.00081871,"INCLINATION":97.4488,"RA_OF_ASC_NODE":37.3259,"ARG_OF_PERICENTER":154.1528,"MEAN_ANOMALY":206.0122,"EPHEMERIS_TYPE":0,"CLASSIFICATION_TYPE":"U","NORAD_CAT_ID":64882,"ELEMENT_SET_NO":999,"REV_AT_EPOCH":6559,"BSTAR":0.0004792617,"MEAN_MOTION_DOT":0.00012876,"MEAN_MOTION_DDOT":0}]
